STARLINK-32448          
1 62206U 24229Q   24360.58335648 -.01457000  00000+0 -21832-1 0  9997
2 62206  42.9993 234.4403 0001648 257.1376   2.1352 15.57162747  4422
STARLINK-32430          
1 62207U 24229R   24360.58335648 -.01459486  00000+0 -21872-1 0  9992
2 62207  42.9993 234.4452 0001636 258.8229 358.5319 15.57164822  4460
STARLINK-32675          
1 62208U 24229S   24360.58335648 -.01457141  00000+0 -21834-1 0  9997
2 62208  42.9993 234.4352 0001664 257.2791   3.9102 15.57163027  4533
STARLINK-32671          
1 62209U 24229T   24360.58335648 -.01457819  00000+0 -21845-1 0  9992
2 62209  42.9993 234.4259 0001685 254.9361  10.0872 15.57163255  4570
STARLINK-32670          
1 62210U 24229U   24360.58335648 -.01457448  00000+0 -21839-1 0  9995
2 62210  42.9993 234.4308 0001657 257.7976   5.3088 15.57163269  4424
STARLINK-32642          
1 62211U 24229V   24360.58335648 -.01456886  00000+0 -21830-1 0  9992
2 62211  42.9994 234.4209 0001657 257.9305   9.0100 15.57162777  4467
STARLINK-32668          
1 62212U 24229W   24360.58335648 -.01456599  00000+0 -21825-1 0  9998
2 62212  42.9994 234.4157 0001690 257.5936  11.2636 15.57162703  4427
STARLINK-32669          
1 62213U 24229X   24360.58335648 -.01456959  00000+0 -21831-1 0  9996
2 62213  42.9993 234.4117 0001701 255.7949  14.9795 15.57162629  4524
STARLINK-32666          
1 62214U 24229Y   24360.58335648 -.01457208  00000+0 -21835-1 0  9999
2 62214  42.9994 234.4066 0001695 255.0439  17.6473 15.57162890  4420
STARLINK-32662          
1 62215U 24229Z   24360.58335648 -.01456774  00000+0 -21828-1 0  9999
2 62215  42.9994 234.4021 0001708 254.9656  19.6427 15.57162450  4429
COSMOS 2580             
1 62216U 24230A   24360.58772748 -.00000007  00000+0  49071-4 0  9993
2 62216  67.1463 279.9226 0006614 264.9355  95.0974 13.96673605  2927
SL-4 R/B                
1 62217U 24230B   24360.58451082  .00192618  11639-4  94736-3 0  9990
2 62217  67.1344 270.7096 0433617  72.9308 291.8849 15.10235982  3144
STARLINK-11394 [DTC]    
1 62218U 24231A   24360.57402669  .00042498  00000+0  26218-3 0  9993
2 62218  53.1560 107.4154 0001529 124.3326 235.7840 15.76743792  4421
STARLINK-11490 [DTC]    
1 62219U 24231B   24360.56914896  .00004941  00000+0  34192-4 0  9995
2 62219  53.1560 107.3823 0001680 128.4753 231.6419 15.76717319  4424
STARLINK-11466 [DTC]    
1 62220U 24231C   24360.56425998  .00062934  00000+0  38533-3 0  9995
2 62220  53.1559 107.3483 0001317  59.4796 300.6355 15.76748580  4423
STARLINK-11468 [DTC]    
1 62221U 24231D   24360.55937544  .00023669  00000+0  14808-3 0  9991
2 62221  53.1568 107.3166 0001239  71.9795 288.1361 15.76748206  4425
STARLINK-11488 [DTC]    
1 62222U 24231E   24360.55449336  .00034794  00000+0  21565-3 0  9998
2 62222  53.1563 107.2840 0000814  85.2578 274.8536 15.76734917  4424
STARLINK-11483 [DTC]    
1 62223U 24231F   24360.58335648 -.00051003  00000+0 -30947-3 0  9990
2 62223  53.1570 107.0855 0001068  75.4113 116.3598 15.76730273  4479
STARLINK-11492 [DTC]    
1 62224U 24231G   24360.58335648 -.00001757  00000+0 -67499-5 0  9996
2 62224  53.1580 107.0288 0001147  85.5991 133.9290 15.76697369  4433
STARLINK-11471 [DTC]    
1 62225U 24231H   24360.58335648 -.00469431  00000+0 -29853-2 0  9993
2 62225  53.1565 106.9711 0001342  89.4917 157.7424 15.77025798  4147
STARLINK-11475 [DTC]    
1 62226U 24231J   24360.58335648 -.00077910  00000+0 -47673-3 0  9992
2 62226  53.1569 106.9137 0000698  98.1999 176.8612 15.76713502  4411
STARLINK-11469 [DTC]    
1 62227U 24231K   24360.58335648 -.00043352  00000+0 -26222-3 0  9993
2 62227  53.1584 106.8569 0001605  80.6411 222.0993 15.76727481  4407
STARLINK-11476 [DTC]    
1 62228U 24231L   24353.70766114  .00026945  00000+0  88467-4 0  9993
2 62228  53.1644 141.3743 0001814 173.9039 186.2010 15.90379232  3343
STARLINK-11485 [DTC]    
1 62229U 24231M   24360.58335648 -.00027947  00000+0 -16721-3 0  9990
2 62229  53.1611 106.7429 0001181  70.1258 288.0417 15.76742128  4190
STARLINK-11481 [DTC]    
1 62230U 24231N   24360.58335648 -.00843931  00000+0 -51779-2 0  9992
2 62230  53.1611 106.6955 0000972  66.5883 314.9949 15.78805337  4402
STARLINK-32650          
1 62231U 24231P   24360.58335648 -.01447177  00000+0 -15107-1 0  9990
2 62231  53.1596 107.4183 0001138  56.1789 326.7144 15.66589683  4411
STARLINK-32636          
1 62232U 24231Q   24360.58335648 -.01445097  00000+0 -15084-1 0  9994
2 62232  53.1596 107.4223 0001053  53.2062 327.7700 15.66588573  4411
STARLINK-32643          
1 62233U 24231R   24360.58335648 -.01444281  00000+0 -15075-1 0  9999
2 62233  53.1596 107.4141 0001078  52.6684 332.1416 15.66587582  4414
STARLINK-32652          
1 62234U 24231S   24360.58335648 -.01445204  00000+0 -15085-1 0  9997
2 62234  53.1596 107.4106 0001126  51.2694 335.4562 15.66588321  4427
STARLINK-32631          
1 62235U 24231T   24360.58335648 -.01449106  00000+0 -15129-1 0  9992
2 62235  53.1596 107.4024 0001083  53.7553 336.8028 15.66590832  4422
STARLINK-32641          
1 62236U 24231U   24360.58335648 -.01446276  00000+0 -15097-1 0  9992
2 62236  53.1596 107.4067 0001105  52.7993 335.8425 15.66589244  4416
CZ-6A R/B               
1 62237U 24232A   24360.58106287  .00000672  00000+0  15373-3 0  9991
2 62237  89.0230  77.7469 0100582  45.0696 315.8615 14.51368990 51281
QIANFAN-37              
1 62238U 24232B   24360.59866600  .00001403  00000+0  59149-3 0  9997
2 62238  88.9934  77.7984 0017572 145.8767 214.3559 14.25102409 51234
QIANFAN-38              
1 62239U 24232C   24360.59809913  .00001418  00000+0  59718-3 0  9990
2 62239  88.9934  77.7984 0016412 145.1335 215.0937 14.25183967 51237
QIANFAN-39              
1 62240U 24232D   24360.59659105  .00001399  00000+0  58863-3 0  9996
2 62240  88.9935  77.7983 0016981 147.8475 212.3757 14.25214301 51231
QIANFAN-40              
1 62241U 24232E   24360.51778577  .00001454  00000+0  60401-3 0  9997
2 62241  88.9934  77.8049 0017146 147.5689 212.6562 14.25902983 51229
QIANFAN-41              
1 62242U 24232F   24360.59428129  .00001435  00000+0  60292-3 0  9998
2 62242  88.9934  77.7978 0017102 148.9913 211.2293 14.25321560 51230
QIANFAN-42              
1 62243U 24232G   24360.59270587  .00001395  00000+0  58446-3 0  9995
2 62243  88.9934  77.7975 0016333 148.7263 211.4905 14.25449063 51241
QIANFAN-43              
1 62244U 24232H   24360.59407321  .00001416  00000+0  59601-3 0  9992
2 62244  88.9934  77.7977 0016804 145.2796 214.9497 14.25221670 19879
QIANFAN-44              
1 62245U 24232J   24360.58444457  .00001428  00000+0  59190-3 0  9999
2 62245  88.9934  77.7961 0016740 149.1160 211.1022 14.25987575 51243
QIANFAN-45              
1 62246U 24232K   24360.58699828  .00001415  00000+0  58653-3 0  9993
2 62246  88.9934  77.7966 0016331 148.6029 211.6143 14.25996439 51241
QIANFAN-46              
1 62247U 24232L   24360.59135416  .00001396  00000+0  58548-3 0  9994
2 62247  88.9934  77.7973 0016306 150.1053 210.1075 14.25393754 51246
QIANFAN-47              
1 62248U 24232M   24360.58645818  .00001424  00000+0  59013-3 0  9996
2 62248  88.9934  77.7965 0016535 149.0649 211.1522 14.26019951 51243
QIANFAN-48              
1 62249U 24232N   24360.58612493  .00001375  00000+0  57114-3 0  9995
2 62249  88.9934  77.7964 0016886 147.2076 213.0169 14.25870317 51244
QIANFAN-49              
1 62250U 24232P   24360.58583136  .00001432  00000+0  59397-3 0  9997
2 62250  88.9934  77.7964 0016519 147.3821 212.8396 14.25981097 19845
QIANFAN-50              
1 62251U 24232Q   24360.58567073  .00001466  00000+0  60873-3 0  9998
2 62251  88.9934  77.7964 0017022 148.0373 212.1857 14.25920209 19861
QIANFAN-51              
1 62252U 24232R   24360.58511765  .00001421  00000+0  58914-3 0  9990
2 62252  88.9934  77.7962 0016354 146.8380 213.3842 14.25995396 19867
QIANFAN-52              
1 62253U 24232S   24360.51646334  .00001408  00000+0  58701-3 0  9994
2 62253  88.9934  77.8046 0017012 149.3301 210.8890 14.25707039 19876
QIANFAN-53              
1 62254U 24232T   24360.58464101  .00001421  00000+0  58801-3 0  9998
2 62254  88.9934  77.7962 0016423 147.4456 212.7754 14.26079299 19891
QIANFAN-54              
1 62255U 24232U   24360.58461705  .00001412  00000+0  58560-3 0  9998
2 62255  88.9934  77.7962 0016186 146.9986 213.2221 14.25986529 51231
PROBA-3                 
1 62256U 24233A   24360.41146491 -.00000035  00000+0  69268-3 0  9992
2 62256  59.2545 144.6768 8111721 188.8133 132.4176  1.22069064   242
PSLV R/B                
1 62257U 24233B   24359.85039881 -.00000206  00000+0 -61631-2 0  9999
2 62257  59.3443 144.8945 8130468 188.7846 132.2694  1.20439178   236
SXM-9                   
1 62259U 24234A   24358.79664907 -.00000168  00000+0  00000+0 0  9993
2 62259   0.0759 283.1817 0001704 345.9582  22.4464  1.00272084   179
FALCON 9 R/B            
1 62260U 24234B   24360.36052527  .00048251 -34082-6  16031-2 0  9993
2 62260  27.0304 140.0643 6389379 195.6660 127.6540  3.53622737   700
SENTINEL-1C             
1 62261U 24235A   24360.57070444  .00000622  00000+0  14214-3 0  9993
2 62261  98.1865   4.5723 0001030 104.9505 255.1809 14.59021579  2864
STARLINK-32632          
1 62262U 24231V   24360.58335648 -.01447394  00000+0 -15109-1 0  9997
2 62262  53.1596 107.3981 0001210  56.8378 335.6377 15.66589896  4415
2024-236A               
1 62263U 24236A   24360.54819765  .00155990  17189-4  84652-3 0  9993
2 62263  58.5381 300.1165 0065971 186.7767 173.2437 15.76646051  3064
2024-236B               
1 62264U 24236B   24360.55209129  .00069496  00000+0  40427-3 0  9998
2 62264  58.5557 300.1734 0064842 185.7434 174.2918 15.74925821  3055
2024-236C               
1 62265U 24236C   24360.57032402  .00348926  51102-4  14617-2 0  9992
2 62265  58.5632 299.6559 0055883 187.5198 172.5062 15.82714720  3064
2024-236D               
1 62266U 24236D   24360.60045919  .00226120  25987-4  11346-2 0  9993
2 62266  58.5548 299.8130 0062694 187.1351 172.8853 15.78482469  2903
